HST                     
1 20580U 90037B   22295.52143389  .00002837  00000+0  15444-3 0  9999
2 20580  28.4708  46.5427 0002343 337.1567  81.0893 15.11100794585453
POLAR                   
1 23802U 96013A   22294.32801038  .00000224  00000+0  00000+0 0  9994
2 23802  78.8026 240.3741 5781880 254.5655  37.5560  1.29847272127523
SWAS                    
1 25560U 98071A   22295.30693415  .00002135  00000+0  20226-3 0  9999
2 25560  69.9016  26.4784 0005313 150.2390 209.9070 14.95177108296988
CXO                     
1 25867U 99040B   22297.62167053  .00001079  00000+0  00000+0 0  9997
2 25867  41.8565 224.0272 8938932 241.3505   0.2074  0.37816742 12284
XMM-NEWTON              
1 25989U 99066A   22292.14769166  .00000043  00000+0  00000+0 0  9995
2 25989  69.7908 302.5000 5866832  85.4146 359.9607  0.50130312 16304
TERRA                   
1 25994U 99068A   22295.50188755  .00000350  00000+0  84379-4 0  9992
2 25994  98.1253   4.4488 0002878  94.3837 323.1818 14.58887394215120
CLUSTER II-FM7 (SAMBA)  
1 26410U 00041A   22297.82357434  .00000358  00000+0  00000+0 0  9990
2 26410 134.7475 349.0861 5937934 201.6120   0.8429  0.44211971 14387
CLUSTER II-FM6 (SALSA)  
1 26411U 00041B   22297.76625522  .00000253  00000+0  00000+0 0  9994
2 26411 137.6766 353.7118 7617558 206.9453   0.8869  0.44218693 25452
CLUSTER II-FM5 (RUMBA)  
1 26463U 00045A   22297.77114760  .00000379  00000+0  00000+0 0  9992
2 26463 141.1382 353.9998 7120984 207.8460   0.8579  0.44218687 26723
CLUSTER II-FM8 (TANGO)  
1 26464U 00045B   22297.77850933  .00000356  00000+0  00000+0 0  9997
2 26464 134.7428 349.0743 5937101 201.6174   0.7961  0.44219361 62067
ODIN                    
1 26702U 01007A   22295.52173016  .00003982  00000+0  24292-3 0  9993
2 26702  97.5182 307.9986 0009843 202.2972 157.7831 15.10865330185458
TIMED                   
1 26998U 01055B   22295.51629769  .00001060  00000+0  11696-3 0  9992
2 26998  74.0743  26.4730 0002210 260.8080  99.2852 14.88885443131915
RHESSI                  
1 27370U 02004A   22295.40611441  .00037609  00000+0  65183-3 0  9996
2 27370  38.0307 287.4535 0009929 202.7506 157.2832 15.49951493146275
INTEGRAL                
1 27540U 02048A   22295.36310126  .00000384  00000+0  00000+0 0  9997
2 27540  78.5846  51.9327 8861275 296.5256  43.9952  0.37577022 21623
CORIOLIS                
1 27640U 03001A   22295.58609230  .00000102  00000+0  69634-4 0  9990
2 27640  98.7193 302.5323 0015290  91.9039  24.3980 14.19160726 25015
SORCE                   
1 27651U 03004A   22295.20738449  .00001908  00000+0  20613-3 0  9997
2 27651  39.9945 229.5829 0024064 283.0380  76.7723 14.90272927 71989
MOST                    
1 27843U 03031D   22295.54654411  .00000077  00000+0  56083-4 0  9990
2 27843  98.7100 301.2948 0010722 137.0211 223.1805 14.20709636  1308
SCISAT 1                
1 27858U 03036A   22295.38920796  .00000553  00000+0  82078-4 0  9997
2 27858  73.9312 293.4464 0009291 297.9367  62.0866 14.77681016 34188
SWIFT                   
1 28485U 04047A   22295.29366370  .00004402  00000+0  25382-3 0  9990
2 28485  20.5557 139.4921 0010628 105.9091 254.2515 15.07261196982702
CLOUDSAT                
1 29107U 06016A   22295.47368885  .00000315  00000+0  70852-4 0  9995
2 29107  98.3442 256.9020 0001785 276.6997  83.4001 14.63170785877608
CALIPSO                 
1 29108U 06016B   22295.47318155  .00000994  00000+0  20282-3 0  9995
2 29108  98.3417 256.4226 0001392  79.0586 281.0772 14.63159639877591
HINODE (SOLAR-B)        
1 29479U 06041A   22295.55815192  .00000465  00000+0  95711-4 0  9999
2 29479  98.1189 309.1044 0018403 181.4455 178.6698 14.64953292859365
SJ-6C                   
1 29505U 06046A   22295.34862514  .00003196  00000+0  28543-3 0  9993
2 29505  97.7724 315.5503 0006010  68.9123 291.2732 14.96625646871671
SJ-6D                   
1 29506U 06046B   22295.38567293  .00000210  00000+0  24941-4 0  9997
2 29506  97.7915 315.6262 0002904 129.4251 230.7236 14.94239337871099
AGILE                   
1 31135U 07013A   22295.52436482  .00015910  00000+0  34575-3 0  9990
2 31135   2.4678 308.5898 0009757 294.4597  65.4440 15.40552108496565
AIM                     
1 31304U 07015A   22295.37246717  .00009413  00000+0  44250-3 0  9995
2 31304  97.8539 219.4516 0002840 324.8808  35.2238 15.19819272850459
FGRST (GLAST)           
1 33053U 08029A   22295.51536267  .00002352  00000+0  11442-3 0  9994
2 33053  25.5842  20.5413 0011666 210.9146 149.0703 15.12564652792953
WISE                    
1 36119U 09071A   22295.37281699  .00007074  00000+0  20910-3 0  9994
2 36119  97.2287 327.3091 0002193 159.0839 201.0494 15.35229741714968
SDO                     
1 36395U 10005A   22295.47737831 -.00000023  00000+0  00000+0 0  9996
2 36395  31.8987 107.1681 0001436 205.3566 148.5550  1.00273479 46684
CRYOSAT 2               
1 36508U 10013A   22295.54858148  .00000151  00000+0  36642-4 0  9991
2 36508  92.0248 314.9302 0005334 148.7459 211.4066 14.51906532664578
X-SAT                   
1 37389U 11015C   22295.43812019  .00000081  00000+0  52676-4 0  9994
2 37389  98.3259 322.1969 0012976 302.4062  57.5861 14.24447427598285
GCOM-W1 (SHIZUKU)       
1 38337U 12025A   22295.41079623  .00000486  00000+0  11791-3 0  9995
2 38337  98.2128 234.0337 0001347  79.9736  30.5508 14.57129475554802
NUSTAR                  
1 38358U 12031A   22295.32811988  .00002981  00000+0  22916-3 0  9996
2 38358   6.0255 160.3008 0011254   6.1392 353.8874 14.89848675563809
NEOSSAT                 
1 39089U 13009D   22295.52843114  .00000177  00000+0  77566-4 0  9999
2 39089  98.4162 128.6384 0010151 258.9017 101.1027 14.34708881505436
BRITE-AUSTRIA           
1 39091U 13009F   22295.50893812  .00000168  00000+0  73662-4 0  9993
2 39091  98.3990 129.4929 0009314 258.9139 101.1000 14.35316262505659
IRIS                    
1 39197U 13033A   22295.47559990  .00000904  00000+0  12759-3 0  9996
2 39197  97.9702 120.2283 0026936 340.7488  19.2703 14.79435312502753
HISAKI (SPRINT-A)       
1 39253U 13049A   22295.52181627  .00000090  00000+0  36741-4 0  9994
2 39253  29.7181 159.0139 0136790   6.6984 353.5384 13.55289092450351
CASSIOPE                
1 39265U 13055A   22295.54205662  .00009255  00000+0  24450-3 0  9997
2 39265  80.9619 132.3443 0609773 300.8914  53.3661 14.41642474470627
STSAT-3                 
1 39422U 13066G   22295.42496833  .00001633  00000+0  17054-3 0  9997
2 39422  97.4757 293.7897 0021347 215.1732 144.8089 14.90826606484758
SWARM B                 
1 39451U 13067A   22295.47749776  .00002593  00000+0  11549-3 0  9991
2 39451  87.7571  23.3105 0002713  99.5792 260.5760 15.21009778480230
SWARM A                 
1 39452U 13067B   22295.43959098  .00004347  00000+0  13337-3 0  9994
2 39452  87.3659 179.1952 0002425  83.6719 276.4809 15.33454170501380
SWARM C                 
1 39453U 13067C   22295.50473700  .00004402  00000+0  13510-3 0  9999
2 39453  87.3508 178.3861 0002427  83.7092 276.4436 15.33452893501354
BRITE-CA1 (TORONTO)     
1 40020U 14033L   22295.41027364  .00000957  00000+0  16939-3 0  9995
2 40020  97.7951  88.0431 0085770 217.9415 141.5728 14.67207711446273
OCO 2                   
1 40059U 14035A   22295.52381727  .00000418  00000+0  10282-3 0  9994
2 40059  98.2126 234.8684 0001569  90.7032 269.4346 14.57124705441835
BRITE-PL2 (HEWELIUSZ)   
1 40119U 14049B   22295.26957840  .00001276  00000+0  15419-3 0  9992
2 40119  97.8845  29.6128 0017051 182.8758 177.2362 14.85399298442836
RESURS P2               
1 40360U 14087A   22295.49335197  .00006963  00000+0  18818-3 0  9996
2 40360  97.2006  17.9168 0008830   2.2118 128.1903 15.38003068437770
MMS 1                   
1 40482U 15011A   22291.72839515 -.00000869  00000+0  00000+0 0  9994
2 40482  30.4863  95.4344 8821982  63.4973 111.7079  0.28547760 13653
MMS 2                   
1 40483U 15011B   22291.73256182 -.00000868  00000+0  00000+0 0  9998
2 40483  30.4891  95.4381 8823869  63.4907 112.1714  0.28554822 13714
MMS 3                   
1 40484U 15011C   22291.73533959 -.00000867  00000+0  00000+0 0  9998
2 40484  30.4907  95.4262 8822732  63.4900 112.4788  0.28547890 13397
MMS 4                   
1 40485U 15011D   22291.73672848 -.00000867  00000+0  00000+0 0  9990
2 40485  30.4862  95.4626 8822263  63.4606 112.6353  0.28554916 13605
ASTROSAT                
1 40930U 15052A   22295.51094544  .00001510  00000+0  12137-3 0  9994
2 40930   5.9982 352.0564 0008455 157.9036 202.1456 14.76821128381966
DAMPE                   
1 41173U 15078A   22295.61761267  .00001075  00000+0  46301-4 0  9993
2 41173  97.3882 284.5364 0015177 109.6074  25.8239 15.24668568380950
PISAT                   
1 41784U 16059B   22295.33641395  .00000623  00000+0  12652-3 0  9998
2 41784  97.9025 333.6717 0032847 126.9911 233.4306 14.64058887324259
HXMT (HUIYAN)           
1 42758U 17034A   22295.63278150  .00003720  00000+0  23058-3 0  9995
2 42758  43.0188   8.5627 0009965 352.7366 158.0885 15.11178499295413
FLYING LAPTOP           
1 42831U 17042G   22295.56185011  .00000778  00000+0  81688-4 0  9995
2 42831  97.4086 142.5530 0012467 306.9309  53.0745 14.92033624287043
PICSAT                  
1 43132U 18004X   22295.19536300  .00015490  00000+0  45763-3 0  9999
2 43132  97.3626  11.0831 0006043 262.3029  97.7528 15.35020752265820
ZHANGZHENG-1 (CSES)     
1 43194U 18015C   22295.50490382  .00009072  00000+0  40951-3 0  9996
2 43194  97.5385  66.1942 0010827   5.3879  59.0097 15.21167553261935
ICON                    
1 44628U 19068A   22295.43037508  .00002742  00000+0  23551-3 0  9991
2 44628  26.9884 198.4848 0018103 289.2132  70.6468 14.93370327165568
SALSAT                  
1 46495U 20068K   22295.37309344  .00002744  00000+0  19679-3 0  9998
2 46495  97.7409 236.8134 0015459 200.9902 159.0691 15.05119620113274
IXPE                    
1 49954U 21121A   22295.52567499  .00003335  00000+0  24713-3 0  9998
2 49954   0.2289 169.0750 0011046   1.8286 189.1160 14.91871128 47435
